FENGYUN 1C DEB          
1 31920U 99025CLX 17345.91943841  .00000714  00000-0  74845-4 0  9993
2 31920  98.8197 328.1722 0175958 155.9155 205.0412 14.82823171564961
